0 SJ-20
1 44910U 19097A   20125.72222066 -.00000362  00000-0  00000+0 0  9992
2 44910   0.1244  85.4241 0005764  90.0728  72.8601  1.00274218  1283
0 SJ-17
1 41838U 16065A   20125.71907250 -.00000091  00000-0  00000+0 0  9993
2 41838   0.1387  87.6239 0002802 340.7468 216.7211  1.00270503 12825
0 TJS-3 AKM
1 43917U 18110C   20125.69734863  .00000048  00000-0  00000+0 0  9992
2 43917   0.2089 267.7316 0001892 144.8278 120.4364  1.00273830  4942
0 LUCH (OLYMP)
1 40258U 14058A   20125.69725581 -.00000076  00000-0  00000+0 0  9993
2 40258   0.0262 261.0299 0002937 213.3780   8.7078  0.99514764 20530
0 INTELSAT 1002
1 28358U 04022A   20125.69524939 -.00000020  00000-0  00000+0 0  9993
2 28358   0.0140 242.4351 0003124 180.0371  49.8570  1.00271399 58226
